{
  "type": "FeatureCollection",
  "features": [
    {
      "type": "Feature",
      "geometry": {
        "type": "Polygon",
        "coordinates": [
          [
            [
              -73.9718704,
              40.662921
            ],
            [
              -73.9718422,
              40.6630627
            ],
            [
              -73.9717999,
              40.6632123
            ],
            [
              -73.9717506,
              40.6633076
            ],
            [
              -73.9716795,
              40.6633879
            ],
            [
              -73.9716214,
              40.6634012
            ],
            [
              -73.9715107,
              40.663525
            ],
            [
              -73.9713706,
              40.6636125
            ],
            [
              -73.9712448,
              40.6636538
            ],
            [
              -73.9711117,
              40.6637024
            ],
            [
              -73.9710246,
              40.6637563
            ],
            [
              -73.9709079,
              40.6638428
            ],
            [
              -73.9708792,
              40.6638328
            ],
            [
              -73.9708654,
              40.6638219
            ],
            [
              -73.9708415,
              40.6638074
            ],
            [
              -73.9708234,
              40.663793
            ],
            [
              -73.9708105,
              40.6637175
            ],
            [
              -73.9707528,
              40.6636758
            ],
            [
              -73.9707541,
              40.6636219
            ],
            [
              -73.9707206,
              40.6635975
            ],
            [
              -73.970734,
              40.663567
            ],
            [
              -73.9707689,
              40.6635161
            ],
            [
              -73.9707702,
              40.663449
            ],
            [
              -73.9707394,
              40.6634042
            ],
            [
              -73.9706106,
              40.6634073
            ],
            [
              -73.9705007,
              40.6634439
            ],
            [
              -73.9704551,
              40.6634663
            ],
            [
              -73.9704081,
              40.6634693
            ],
            [
              -73.970388,
              40.6634276
            ],
            [
              -73.9704041,
              40.6633767
            ],
            [
              -73.9704846,
              40.6633127
            ],
            [
              -73.9706106,
              40.6632994
            ],
            [
              -73.9707434,
              40.6632526
            ],
            [
              -73.9708413,
              40.663218
            ],
            [
              -73.9709178,
              40.6632262
            ],
            [
              -73.9710076,
              40.663216
            ],
            [
              -73.9710385,
              40.6632618
            ],
            [
              -73.9711283,
              40.6632994
            ],
            [
              -73.9711667,
              40.6633535
            ],
            [
              -73.9712946,
              40.6633422
            ],
            [
              -73.9713267,
              40.6632813
            ],
            [
              -73.9713348,
              40.6632323
            ],
            [
              -73.9713952,
              40.6631784
            ],
            [
              -73.9714837,
              40.6631519
            ],
            [
              -73.9715923,
              40.663154
            ],
            [
              -73.9716528,
              40.6631381
            ],
            [
              -73.9717575,
              40.6630636
            ],
            [
              -73.9718104,
              40.6629838
            ],
            [
              -73.9718406,
              40.6629222
            ],
            [
              -73.9718581,
              40.6629215
            ],
            [
              -73.9718704,
              40.662921
            ]
          ]
        ]
      },
      "properties": {
        "id": "prospect_park_water_001",
        "name": "Prospect Park water area",
        "kind": "water",
        "source": "OpenStreetMap Overpass API"
      }
    },
    {
      "type": "Feature",
      "geometry": {
        "type": "Polygon",
        "coordinates": [
          [
            [
              -73.9682923,
              40.6618471
            ],
            [
              -73.968289,
              40.6618588
            ],
            [
              -73.9682762,
              40.661904
            ],
            [
              -73.9682333,
              40.6619447
            ],
            [
              -73.9680938,
              40.6619529
            ],
            [
              -73.9680026,
              40.6619488
            ],
            [
              -73.9679275,
              40.6618959
            ],
            [
              -73.9678792,
              40.6618389
            ],
            [
              -73.9678095,
              40.6618145
            ],
            [
              -73.9677223,
              40.66181
            ],
            [
              -73.9676727,
              40.6618339
            ],
            [
              -73.9676613,
              40.6618761
            ],
            [
              -73.9676528,
              40.6619179
            ],
            [
              -73.9675144,
              40.662018
            ],
            [
              -73.9674822,
              40.662079
            ],
            [
              -73.9674534,
              40.6620801
            ],
            [
              -73.967375,
              40.6620831
            ],
            [
              -73.9673896,
              40.6620683
            ],
            [
              -73.9674232,
              40.6620342
            ],
            [
              -73.9674662,
              40.6619895
            ],
            [
              -73.967503,
              40.6619711
            ],
            [
              -73.9675406,
              40.6619132
            ],
            [
              -73.9675627,
              40.6618674
            ],
            [
              -73.9676257,
              40.6618129
            ],
            [
              -73.9676649,
              40.6617877
            ],
            [
              -73.9677116,
              40.6617754
            ],
            [
              -73.9677719,
              40.661782
            ],
            [
              -73.9678578,
              40.6617982
            ],
            [
              -73.9679919,
              40.6617657
            ],
            [
              -73.9680401,
              40.6617453
            ],
            [
              -73.9681313,
              40.6617453
            ],
            [
              -73.9682118,
              40.661786
            ],
            [
              -73.9682762,
              40.6618349
            ],
            [
              -73.9682923,
              40.6618471
            ]
          ]
        ]
      },
      "properties": {
        "id": "prospect_park_water_002",
        "name": "Prospect Park water area",
        "kind": "water",
        "source": "OpenStreetMap Overpass API"
      }
    },
    {
      "type": "Feature",
      "geometry": {
        "type": "Polygon",
        "coordinates": [
          [
            [
              -73.9697134,
              40.66415
            ],
            [
              -73.9696788,
              40.6641797
            ],
            [
              -73.9695981,
              40.664198
            ],
            [
              -73.9695087,
              40.6641266
            ],
            [
              -73.969477,
              40.6641224
            ],
            [
              -73.9694566,
              40.6641487
            ],
            [
              -73.9694413,
              40.6641929
            ],
            [
              -73.9693778,
              40.6642411
            ],
            [
              -73.9692979,
              40.6642688
            ],
            [
              -73.9692575,
              40.6642664
            ],
            [
              -73.9692253,
              40.6642566
            ],
            [
              -73.9692349,
              40.6642421
            ],
            [
              -73.9693008,
              40.6641421
            ],
            [
              -73.969367,
              40.6640955
            ],
            [
              -73.969488,
              40.6640688
            ],
            [
              -73.9696274,
              40.664068
            ],
            [
              -73.9697024,
              40.664103
            ],
            [
              -73.9697062,
              40.6641191
            ],
            [
              -73.9697134,
              40.66415
            ]
          ]
        ]
      },
      "properties": {
        "id": "prospect_park_water_003",
        "name": "Prospect Park water area",
        "kind": "water",
        "source": "OpenStreetMap Overpass API"
      }
    },
    {
      "type": "Feature",
      "geometry": {
        "type": "Polygon",
        "coordinates": [
          [
            [
              -73.9649784,
              40.6656707
            ],
            [
              -73.9650065,
              40.6656564
            ],
            [
              -73.9650257,
              40.6656438
            ],
            [
              -73.9650482,
              40.6656223
            ],
            [
              -73.9650651,
              40.6655993
            ],
            [
              -73.9650728,
              40.6655785
            ],
            [
              -73.9650709,
              40.665547
            ],
            [
              -73.9650602,
              40.6655283
            ],
            [
              -73.9650466,
              40.665515
            ],
            [
              -73.9650265,
              40.6655031
            ],
            [
              -73.9650027,
              40.6654934
            ],
            [
              -73.9649708,
              40.6654887
            ],
            [
              -73.9649127,
              40.6654912
            ],
            [
              -73.9648491,
              40.6655071
            ],
            [
              -73.9648024,
              40.6655376
            ],
            [
              -73.9647627,
              40.6655821
            ],
            [
              -73.9647586,
              40.6655992
            ],
            [
              -73.9647547,
              40.6656233
            ],
            [
              -73.9647626,
              40.6656428
            ],
            [
              -73.9647693,
              40.665654
            ],
            [
              -73.9647836,
              40.6656683
            ],
            [
              -73.9648021,
              40.6656786
            ],
            [
              -73.9648241,
              40.6656885
            ],
            [
              -73.9648709,
              40.6656927
            ],
            [
              -73.9648997,
              40.665692
            ],
            [
              -73.9649421,
              40.6656845
            ],
            [
              -73.9649784,
              40.6656707
            ]
          ]
        ]
      },
      "properties": {
        "id": "prospect_park_water_004",
        "name": "Prospect Park water area",
        "kind": "water",
        "source": "OpenStreetMap Overpass API"
      }
    },
    {
      "type": "Feature",
      "geometry": {
        "type": "Polygon",
        "coordinates": [
          [
            [
              -73.9656473,
              40.666191
            ],
            [
              -73.9656209,
              40.6662178
            ],
            [
              -73.9656027,
              40.6662486
            ],
            [
              -73.965518,
              40.6662453
            ],
            [
              -73.9654938,
              40.6662223
            ],
            [
              -73.9655093,
              40.6661987
            ],
            [
              -73.9655629,
              40.6661712
            ],
            [
              -73.9655764,
              40.6661608
            ],
            [
              -73.9656174,
              40.6661345
            ],
            [
              -73.9656511,
              40.6661089
            ],
            [
              -73.9656918,
              40.6661063
            ],
            [
              -73.9657315,
              40.6661332
            ],
            [
              -73.965735,
              40.6661666
            ],
            [
              -73.9657082,
              40.6661817
            ],
            [
              -73.9656473,
              40.666191
            ]
          ]
        ]
      },
      "properties": {
        "id": "prospect_park_water_005",
        "name": "Prospect Park water area",
        "kind": "water",
        "source": "OpenStreetMap Overpass API"
      }
    },
    {
      "type": "Feature",
      "geometry": {
        "type": "Polygon",
        "coordinates": [
          [
            [
              -73.9647745,
              40.6648921
            ],
            [
              -73.9647573,
              40.6649323
            ],
            [
              -73.9647044,
              40.6649554
            ],
            [
              -73.9646369,
              40.6649323
            ],
            [
              -73.9645933,
              40.6649162
            ],
            [
              -73.9645602,
              40.66484
            ],
            [
              -73.9645827,
              40.6648309
            ],
            [
              -73.9645708,
              40.6647788
            ],
            [
              -73.9645271,
              40.6647326
            ],
            [
              -73.9645059,
              40.6647186
            ],
            [
              -73.9645562,
              40.6646895
            ],
            [
              -73.9646091,
              40.6646533
            ],
            [
              -73.9646541,
              40.6645992
            ],
            [
              -73.9647049,
              40.6645986
            ],
            [
              -73.9647555,
              40.6646222
            ],
            [
              -73.9648223,
              40.6646331
            ],
            [
              -73.9648261,
              40.6646423
            ],
            [
              -73.9647321,
              40.6647045
            ],
            [
              -73.9647388,
              40.6647256
            ],
            [
              -73.9647361,
              40.6647517
            ],
            [
              -73.9646978,
              40.6647707
            ],
            [
              -73.9647599,
              40.664841
            ],
            [
              -73.9647745,
              40.6648921
            ]
          ]
        ]
      },
      "properties": {
        "id": "prospect_park_water_006",
        "name": "Prospect Park water area",
        "kind": "water",
        "source": "OpenStreetMap Overpass API"
      }
    },
    {
      "type": "Feature",
      "geometry": {
        "type": "Polygon",
        "coordinates": [
          [
            [
              -73.9649862,
              40.6645609
            ],
            [
              -73.9650573,
              40.6645601
            ],
            [
              -73.9651197,
              40.6645288
            ],
            [
              -73.9651302,
              40.6644844
            ],
            [
              -73.9651072,
              40.6644407
            ],
            [
              -73.9650765,
              40.664421
            ],
            [
              -73.9650256,
              40.6644188
            ],
            [
              -73.9649757,
              40.6644327
            ],
            [
              -73.9649497,
              40.6644553
            ],
            [
              -73.9649526,
              40.6645143
            ],
            [
              -73.9649197,
              40.664531
            ],
            [
              -73.9649496,
              40.6645675
            ],
            [
              -73.9649862,
              40.6645609
            ]
          ]
        ]
      },
      "properties": {
        "id": "prospect_park_water_007",
        "name": "Prospect Park water area",
        "kind": "water",
        "source": "OpenStreetMap Overpass API"
      }
    },
    {
      "type": "Feature",
      "geometry": {
        "type": "Polygon",
        "coordinates": [
          [
            [
              -73.9708415,
              40.6638074
            ],
            [
              -73.9707233,
              40.6639161
            ],
            [
              -73.9705923,
              40.6639337
            ],
            [
              -73.9704792,
              40.6639791
            ],
            [
              -73.9704483,
              40.6639999
            ],
            [
              -73.9704293,
              40.6640559
            ],
            [
              -73.9704342,
              40.6641354
            ],
            [
              -73.9704357,
              40.6641755
            ],
            [
              -73.9704201,
              40.6642038
            ],
            [
              -73.9703638,
              40.6642189
            ],
            [
              -73.9702423,
              40.664214
            ],
            [
              -73.9701547,
              40.664175
            ],
            [
              -73.9700374,
              40.6641602
            ],
            [
              -73.9698664,
              40.6641475
            ],
            [
              -73.9697635,
              40.6641325
            ],
            [
              -73.9697062,
              40.6641191
            ],
            [
              -73.9697134,
              40.66415
            ],
            [
              -73.9696788,
              40.6641797
            ],
            [
              -73.9697811,
              40.6641752
            ],
            [
              -73.9698812,
              40.6641882
            ],
            [
              -73.9700199,
              40.6642073
            ],
            [
              -73.9701292,
              40.6642244
            ],
            [
              -73.9702442,
              40.6642478
            ],
            [
              -73.9703718,
              40.6642535
            ],
            [
              -73.9704384,
              40.664222
            ],
            [
              -73.9704674,
              40.6641885
            ],
            [
              -73.9704715,
              40.664114
            ],
            [
              -73.970491,
              40.6640632
            ],
            [
              -73.9704658,
              40.6640464
            ],
            [
              -73.9704834,
              40.6640192
            ],
            [
              -73.9705607,
              40.663988
            ],
            [
              -73.9706403,
              40.6639892
            ],
            [
              -73.9707526,
              40.6639398
            ],
            [
              -73.9708158,
              40.6638921
            ],
            [
              -73.9708654,
              40.6638482
            ],
            [
              -73.9708792,
              40.6638328
            ],
            [
              -73.9708654,
              40.6638219
            ],
            [
              -73.9708415,
              40.6638074
            ]
          ]
        ]
      },
      "properties": {
        "id": "prospect_park_water_008",
        "name": "Prospect Park water area",
        "kind": "water",
        "source": "OpenStreetMap Overpass API"
      }
    },
    {
      "type": "Feature",
      "geometry": {
        "type": "Polygon",
        "coordinates": [
          [
            [
              -73.9682775,
              40.6581105
            ],
            [
              -73.9683584,
              40.6581062
            ],
            [
              -73.968443,
              40.6581016
            ],
            [
              -73.9684305,
              40.6581889
            ],
            [
              -73.9684288,
              40.6584078
            ],
            [
              -73.9684545,
              40.6586942
            ],
            [
              -73.9684288,
              40.65887
            ],
            [
              -73.9684909,
              40.6590396
            ],
            [
              -73.9685043,
              40.6590737
            ],
            [
              -73.9684662,
              40.6591256
            ],
            [
              -73.9683147,
              40.6591561
            ],
            [
              -73.9681517,
              40.6592324
            ],
            [
              -73.9679588,
              40.659503
            ],
            [
              -73.9677869,
              40.659679
            ],
            [
              -73.9676792,
              40.6597502
            ],
            [
              -73.9675408,
              40.6597542
            ],
            [
              -73.9673473,
              40.6597686
            ],
            [
              -73.9672615,
              40.6597946
            ],
            [
              -73.9672357,
              40.6598467
            ],
            [
              -73.9672186,
              40.6599248
            ],
            [
              -73.9672695,
              40.6600334
            ],
            [
              -73.9672867,
              40.660092
            ],
            [
              -73.9672266,
              40.6601636
            ],
            [
              -73.9671408,
              40.6602092
            ],
            [
              -73.9670807,
              40.6602092
            ],
            [
              -73.9670292,
              40.6601766
            ],
            [
              -73.9670206,
              40.6601245
            ],
            [
              -73.9670635,
              40.6600854
            ],
            [
              -73.9670893,
              40.6600138
            ],
            [
              -73.9670641,
              40.6599314
            ],
            [
              -73.9669267,
              40.6598532
            ],
            [
              -73.9667637,
              40.6598532
            ],
            [
              -73.9666178,
              40.6598728
            ],
            [
              -73.9665233,
              40.6599574
            ],
            [
              -73.9664976,
              40.6601006
            ],
            [
              -73.9665834,
              40.6601918
            ],
            [
              -73.966599,
              40.6603158
            ],
            [
              -73.9666006,
              40.6603285
            ],
            [
              -73.9665748,
              40.6604587
            ],
            [
              -73.9664056,
              40.6606795
            ],
            [
              -73.9663718,
              40.6607039
            ],
            [
              -73.9662469,
              40.6607211
            ],
            [
              -73.966077,
              40.6606736
            ],
            [
              -73.9659483,
              40.6606801
            ],
            [
              -73.9658624,
              40.6607127
            ],
            [
              -73.9658367,
              40.6607843
            ],
            [
              -73.9658796,
              40.6608885
            ],
            [
              -73.965974,
              40.6609536
            ],
            [
              -73.9661028,
              40.6609666
            ],
            [
              -73.96618,
              40.6610252
            ],
            [
              -73.9662315,
              40.661188
            ],
            [
              -73.9662401,
              40.6613768
            ],
            [
              -73.9662419,
              40.6615223
            ],
            [
              -73.9662517,
              40.6616158
            ],
            [
              -73.9662422,
              40.6616315
            ],
            [
              -73.9662309,
              40.6616322
            ],
            [
              -73.9662216,
              40.6616327
            ],
            [
              -73.9662029,
              40.6616098
            ],
            [
              -73.966185,
              40.6615962
            ],
            [
              -73.9661543,
              40.6615135
            ],
            [
              -73.9661208,
              40.6614443
            ],
            [
              -73.9660532,
              40.6614203
            ],
            [
              -73.9660022,
              40.6614215
            ],
            [
              -73.96589,
              40.6614543
            ],
            [
              -73.9658006,
              40.661464
            ],
            [
              -73.965729,
              40.6614429
            ],
            [
              -73.9656795,
              40.661418
            ],
            [
              -73.9656555,
              40.661393
            ],
            [
              -73.965637,
              40.6613153
            ],
            [
              -73.9656045,
              40.6612576
            ],
            [
              -73.9655426,
              40.6612236
            ],
            [
              -73.9654776,
              40.6611697
            ],
            [
              -73.965423,
              40.6610823
            ],
            [
              -73.9654041,
              40.6610389
            ],
            [
              -73.9654046,
              40.661035
            ],
            [
              -73.9654264,
              40.6610354
            ],
            [
              -73.9654417,
              40.6610236
            ],
            [
              -73.9654419,
              40.6610166
            ],
            [
              -73.965468,
              40.6610162
            ],
            [
              -73.9655177,
              40.6606663
            ],
            [
              -73.9654967,
              40.6606651
            ],
            [
              -73.9654974,
              40.6606575
            ],
            [
              -73.9655299,
              40.6606341
            ],
            [
              -73.965568,
              40.6606096
            ],
            [
              -73.9655828,
              40.660573
            ],
            [
              -73.9656097,
              40.6605608
            ],
            [
              -73.9656908,
              40.6605705
            ],
            [
              -73.9657658,
              40.6605774
            ],
            [
              -73.9659014,
              40.6605336
            ],
            [
              -73.9659677,
              40.6605283
            ],
            [
              -73.9660341,
              40.6605043
            ],
            [
              -73.966063,
              40.6604652
            ],
            [
              -73.9661015,
              40.6604238
            ],
            [
              -73.9660867,
              40.6603293
            ],
            [
              -73.9659569,
              40.6602048
            ],
            [
              -73.9659569,
              40.6600811
            ],
            [
              -73.9659569,
              40.6599574
            ],
            [
              -73.9660169,
              40.6598988
            ],
            [
              -73.9661199,
              40.6598142
            ],
            [
              -73.9662143,
              40.6597621
            ],
            [
              -73.9663173,
              40.659749
            ],
            [
              -73.9665577,
              40.659723
            ],
            [
              -73.9667122,
              40.6596579
            ],
            [
              -73.9668581,
              40.6596058
            ],
            [
              -73.9670383,
              40.6595928
            ],
            [
              -73.9671671,
              40.6595798
            ],
            [
              -73.9672872,
              40.6595146
            ],
            [
              -73.9673301,
              40.65943
            ],
            [
              -73.9673731,
              40.6593454
            ],
            [
              -73.9674331,
              40.6592802
            ],
            [
              -73.9676306,
              40.6592412
            ],
            [
              -73.9678194,
              40.6592216
            ],
            [
              -73.9679739,
              40.65915
            ],
            [
              -73.968094,
              40.6590328
            ],
            [
              -73.9681713,
              40.6589156
            ],
            [
              -73.9682829,
              40.6587984
            ],
            [
              -73.9683086,
              40.6586422
            ],
            [
              -73.9683086,
              40.6584208
            ],
            [
              -73.9682775,
              40.6581105
            ]
          ]
        ]
      },
      "properties": {
        "id": "prospect_park_water_009",
        "name": "Prospect Park water area",
        "kind": "water",
        "source": "OpenStreetMap Overpass API"
      }
    },
    {
      "type": "Feature",
      "geometry": {
        "type": "Polygon",
        "coordinates": [
          [
            [
              -73.9662517,
              40.6616158
            ],
            [
              -73.966263,
              40.661697
            ],
            [
              -73.9662344,
              40.6616981
            ],
            [
              -73.9662061,
              40.6616953
            ],
            [
              -73.9662029,
              40.6616098
            ],
            [
              -73.9662216,
              40.6616327
            ],
            [
              -73.9662309,
              40.6616322
            ],
            [
              -73.9662422,
              40.6616315
            ],
            [
              -73.9662517,
              40.6616158
            ]
          ]
        ]
      },
      "properties": {
        "id": "prospect_park_water_010",
        "name": "Prospect Park water area",
        "kind": "water",
        "source": "OpenStreetMap Overpass API"
      }
    },
    {
      "type": "Feature",
      "geometry": {
        "type": "Polygon",
        "coordinates": [
          [
            [
              -73.9667186,
              40.6620225
            ],
            [
              -73.9667827,
              40.6620615
            ],
            [
              -73.9668345,
              40.6621079
            ],
            [
              -73.9668822,
              40.6621295
            ],
            [
              -73.9669288,
              40.6621295
            ],
            [
              -73.9670394,
              40.6621406
            ],
            [
              -73.9671308,
              40.6621339
            ],
            [
              -73.9671954,
              40.6621189
            ],
            [
              -73.9672466,
              40.6621132
            ],
            [
              -73.9673141,
              40.6620849
            ],
            [
              -73.9673896,
              40.6620683
            ],
            [
              -73.967375,
              40.6620831
            ],
            [
              -73.9674534,
              40.6620801
            ],
            [
              -73.967359,
              40.6621048
            ],
            [
              -73.9672559,
              40.6621423
            ],
            [
              -73.9671255,
              40.6621666
            ],
            [
              -73.9670079,
              40.6621666
            ],
            [
              -73.966909,
              40.662164
            ],
            [
              -73.9668473,
              40.6621485
            ],
            [
              -73.9667961,
              40.6621189
            ],
            [
              -73.9667262,
              40.662077
            ],
            [
              -73.966696,
              40.6620389
            ],
            [
              -73.9667056,
              40.6620319
            ],
            [
              -73.9667186,
              40.6620225
            ]
          ]
        ]
      },
      "properties": {
        "id": "prospect_park_water_011",
        "name": "Prospect Park water area",
        "kind": "water",
        "source": "OpenStreetMap Overpass API"
      }
    },
    {
      "type": "Feature",
      "geometry": {
        "type": "Polygon",
        "coordinates": [
          [
            [
              -73.9715011,
              40.6617089
            ],
            [
              -73.9715046,
              40.6617113
            ],
            [
              -73.9715142,
              40.6617179
            ],
            [
              -73.9715115,
              40.661757
            ],
            [
              -73.9715121,
              40.6617965
            ],
            [
              -73.9714792,
              40.6618431
            ],
            [
              -73.9714518,
              40.6618809
            ],
            [
              -73.9714819,
              40.6619066
            ],
            [
              -73.9714899,
              40.66193
            ],
            [
              -73.971463,
              40.6619499
            ],
            [
              -73.9714343,
              40.6619499
            ],
            [
              -73.9713772,
              40.6619123
            ],
            [
              -73.9713716,
              40.6619056
            ],
            [
              -73.9713196,
              40.6619004
            ],
            [
              -73.9712958,
              40.6619387
            ],
            [
              -73.9712545,
              40.6619936
            ],
            [
              -73.9712239,
              40.6620329
            ],
            [
              -73.9712066,
              40.6620745
            ],
            [
              -73.9711957,
              40.6621195
            ],
            [
              -73.9711761,
              40.6621156
            ],
            [
              -73.97116,
              40.6621134
            ],
            [
              -73.9711772,
              40.6620617
            ],
            [
              -73.971192,
              40.6620147
            ],
            [
              -73.971216,
              40.6619708
            ],
            [
              -73.9712461,
              40.6619315
            ],
            [
              -73.9712742,
              40.661892
            ],
            [
              -73.9713099,
              40.6618816
            ],
            [
              -73.9713336,
              40.6618899
            ],
            [
              -73.9713813,
              40.6618957
            ],
            [
              -73.971402,
              40.661893
            ],
            [
              -73.9714382,
              40.661833
            ],
            [
              -73.9714542,
              40.661791
            ],
            [
              -73.971467,
              40.6617543
            ],
            [
              -73.971469,
              40.6617268
            ],
            [
              -73.9714831,
              40.66171
            ],
            [
              -73.9714963,
              40.6617092
            ],
            [
              -73.9715011,
              40.6617089
            ]
          ]
        ]
      },
      "properties": {
        "id": "prospect_park_water_012",
        "name": "Prospect Park water area",
        "kind": "water",
        "source": "OpenStreetMap Overpass API"
      }
    },
    {
      "type": "Feature",
      "geometry": {
        "type": "Polygon",
        "coordinates": [
          [
            [
              -73.9715046,
              40.6617113
            ],
            [
              -73.9715011,
              40.6617089
            ],
            [
              -73.9714963,
              40.6617092
            ],
            [
              -73.9714962,
              40.6617029
            ],
            [
              -73.9715024,
              40.6616997
            ],
            [
              -73.971507,
              40.6617026
            ],
            [
              -73.9715046,
              40.6617113
            ]
          ]
        ]
      },
      "properties": {
        "id": "prospect_park_water_013",
        "name": "Prospect Park water area",
        "kind": "water",
        "source": "OpenStreetMap Overpass API"
      }
    },
    {
      "type": "Feature",
      "geometry": {
        "type": "Polygon",
        "coordinates": [
          [
            [
              -73.9689438,
              40.6638223
            ],
            [
              -73.9690094,
              40.6638702
            ],
            [
              -73.9690376,
              40.6639073
            ],
            [
              -73.969034,
              40.6639436
            ],
            [
              -73.9689844,
              40.6640016
            ],
            [
              -73.9689681,
              40.6640697
            ],
            [
              -73.9689904,
              40.6641055
            ],
            [
              -73.9690413,
              40.6641559
            ],
            [
              -73.9690732,
              40.6641907
            ],
            [
              -73.9691563,
              40.6642378
            ],
            [
              -73.9692055,
              40.6642467
            ],
            [
              -73.9692349,
              40.6642421
            ],
            [
              -73.9692253,
              40.6642566
            ],
            [
              -73.9692575,
              40.6642664
            ],
            [
              -73.9691639,
              40.6642585
            ],
            [
              -73.9691147,
              40.6642461
            ],
            [
              -73.9690429,
              40.6641879
            ],
            [
              -73.9689868,
              40.6641319
            ],
            [
              -73.9689519,
              40.6641067
            ],
            [
              -73.9689472,
              40.6640588
            ],
            [
              -73.9689529,
              40.6639915
            ],
            [
              -73.9689898,
              40.6639459
            ],
            [
              -73.969019,
              40.6639158
            ],
            [
              -73.9689941,
              40.6638788
            ],
            [
              -73.9688917,
              40.6638455
            ],
            [
              -73.968888,
              40.6638127
            ],
            [
              -73.968898,
              40.6637598
            ],
            [
              -73.9689273,
              40.6636536
            ],
            [
              -73.9689392,
              40.6636166
            ],
            [
              -73.9689891,
              40.6635286
            ],
            [
              -73.9689974,
              40.6634317
            ],
            [
              -73.9689701,
              40.6633843
            ],
            [
              -73.9689868,
              40.6633309
            ],
            [
              -73.9690021,
              40.6632895
            ],
            [
              -73.9690207,
              40.6632711
            ],
            [
              -73.9690326,
              40.6632401
            ],
            [
              -73.9690227,
              40.6632036
            ],
            [
              -73.9690632,
              40.6631519
            ],
            [
              -73.9691114,
              40.6630523
            ],
            [
              -73.9691566,
              40.6629148
            ],
            [
              -73.9691573,
              40.6628382
            ],
            [
              -73.9691573,
              40.6627257
            ],
            [
              -73.9691546,
              40.6626183
            ],
            [
              -73.969137,
              40.6625422
            ],
            [
              -73.9690915,
              40.6624668
            ],
            [
              -73.9689665,
              40.6623042
            ],
            [
              -73.9689106,
              40.6622315
            ],
            [
              -73.9688229,
              40.662167
            ],
            [
              -73.9687345,
              40.6621062
            ],
            [
              -73.9686028,
              40.6620492
            ],
            [
              -73.9685111,
              40.6619988
            ],
            [
              -73.9684283,
              40.6619254
            ],
            [
              -73.9683592,
              40.6618725
            ],
            [
              -73.968289,
              40.6618588
            ],
            [
              -73.9682923,
              40.6618471
            ],
            [
              -73.9682762,
              40.6618349
            ],
            [
              -73.9683149,
              40.6618352
            ],
            [
              -73.968397,
              40.6618556
            ],
            [
              -73.9684606,
              40.6619073
            ],
            [
              -73.9685357,
              40.6619643
            ],
            [
              -73.9686026,
              40.662016
            ],
            [
              -73.9687071,
              40.6620519
            ],
            [
              -73.9687867,
              40.6621036
            ],
            [
              -73.9688491,
              40.6621556
            ],
            [
              -73.9689557,
              40.6622417
            ],
            [
              -73.9691173,
              40.6624559
            ],
            [
              -73.9691928,
              40.6625757
            ],
            [
              -73.9691948,
              40.6626717
            ],
            [
              -73.9691895,
              40.6627961
            ],
            [
              -73.9691968,
              40.6629072
            ],
            [
              -73.9691646,
              40.6630376
            ],
            [
              -73.9691217,
              40.6631605
            ],
            [
              -73.9690777,
              40.6632409
            ],
            [
              -73.9690613,
              40.6633747
            ],
            [
              -73.9690291,
              40.6634295
            ],
            [
              -73.9690214,
              40.6635644
            ],
            [
              -73.9689724,
              40.6636233
            ],
            [
              -73.9689299,
              40.6637715
            ],
            [
              -73.9689438,
              40.6638223
            ]
          ]
        ]
      },
      "properties": {
        "id": "prospect_park_water_014",
        "name": "Prospect Park water area",
        "kind": "water",
        "source": "OpenStreetMap Overpass API"
      }
    }
  ]
}