{
  "type": "FeatureCollection",
  "features": [
    {
      "type": "Feature",
      "properties": {
        "name": "Central Park Zoo",
        "osm_type": "way",
        "osm_id": 354587586,
        "tourism": "zoo",
        "access": null,
        "source": "OpenStreetMap Overpass API"
      },
      "geometry": {
        "type": "Polygon",
        "coordinates": [
          [
            [
              -73.9729059,
              40.7672028
            ],
            [
              -73.9721868,
              40.7668929
            ],
            [
              -73.9719754,
              40.7667969
            ],
            [
              -73.9715326,
              40.7665973
            ],
            [
              -73.970953,
              40.7673907
            ],
            [
              -73.9708816,
              40.7674883
            ],
            [
              -73.9704918,
              40.7680224
            ],
            [
              -73.9711579,
              40.7683782
            ],
            [
              -73.9713153,
              40.7684622
            ],
            [
              -73.9720905,
              40.7687568
            ],
            [
              -73.972753,
              40.7688056
            ],
            [
              -73.972863,
              40.7683099
            ],
            [
              -73.9728871,
              40.7677127
            ],
            [
              -73.9729059,
              40.7672028
            ]
          ]
        ]
      }
    }
  ]
}